satname,norad_id,inclination_deg,eccentricity,mean_motion_rev_per_day,perigee_km,apogee_km,l1,l2
STARLINK-1008,44714,53.1547,0.0001062,15.46468551,426.34372813564005,427.78915334645353,1 44714U 19074B   26125.43429174  .00025109  00000+0  50541-3 0  9995,2 44714  53.1547 272.6905 0001062  16.8417 343.2626 15.46468551357594
STARLINK-1012,44718,53.1587,7.16e-05,15.46658019,426.0234513212581,426.9978768667561,1 44718U 19074F   26125.88929673  .00020172  00000+0  40533-3 0  9992,2 44718  53.1587 270.8464 0000716  10.3280 349.7742 15.46658019357651
STARLINK-1017,44723,53.0484,0.0002787,15.29085676,476.63330336231775,480.45521749688123,1 44723U 19074L   26125.82496569  .00034087  00000+0  11979-2 0  9996,2 44723  53.0484 266.8211 0002787 275.7804  84.2877 15.29085676357694
STARLINK-1019,44724,53.0295,0.0011763,16.11912739,233.81453636039532,249.38813276628844,1 44724U 19074M   26125.71447956  .00838895  41789-3  75927-3 0  9997,2 44724  53.0295 205.0720 0011763 352.6821   7.4040 16.11912739358537
STARLINK-1020,44725,53.1609,8.24e-05,15.50135146,415.7712666142934,416.8909949622466,1 44725U 19074N   26125.75296247  .00073530  00000+0  12799-2 0  9998,2 44725  53.1609 296.6582 0000824  51.3664 308.7419 15.50135146357261
STARLINK-1036,44741,53.044,0.0002554,15.6606964,368.4407253224581,371.8877575965953,1 44741U 19074AE  26125.69883757  .00052966  00000+0  50924-3 0  9990,2 44741  53.0440 270.1476 0002554 205.8389 154.2498 15.66069640357636
STARLINK-1039,44744,53.0595,1.95e-05,15.26405077,486.4356328975273,486.70335645082014,1 44744U 19074AH  26125.92693401  .00038291  00000+0  14574-2 0  9999,2 44744  53.0595 311.0649 0000195 255.3944 104.7032 15.26405077357080
STARLINK-1042,44747,53.0411,0.0002523,15.52683455,407.1825425283587,410.6072788304873,1 44747U 19074AL  26125.47494914  .00022928  00000+0  37186-3 0  9995,2 44747  53.0411 181.7181 0002523  12.6925 347.4148 15.52683455358883
STARLINK-1043,44748,53.05,0.000145,15.57691835,393.3570587378881,395.32107679754154,1 44748U 19074AM  26125.45200436  .00049715  00000+0  66160-3 0  9995,2 44748  53.0500 279.8310 0001450 237.7055 122.3816 15.57691835357481
STARLINK-1046,44751,53.0498,0.0003816,15.51099862,410.9219042667928,416.10529200328983,1 44751U 19074AQ  26125.78041706  .00065414  00000+0  11021-2 0  9997,2 44751  53.0498 298.0947 0003816 333.8383  26.2433 15.51099862357258
STARLINK-1047,44752,53.069,0.0003299,15.33844531,462.09737133771796,466.61204736754917,1 44752U 19074AR  26125.72840360  .00011810  00000+0  36641-3 0  9992,2 44752  53.0690 239.2780 0003299  56.2478 303.8837 15.33844531358097
STARLINK-1048,44753,53.0461,0.000463,15.6408245,372.75180044399985,379.0060191764842,1 44753U 19074AS  26125.52558367  .00104742  00000+0  10770-2 0  9995,2 44753  53.0461 252.5515 0004630 301.6281  58.4281 15.64082450357865
STARLINK-1063,44768,53.1581,7.98e-05,15.46420498,426.66434874060997,427.7504817092786,1 44768U 19074BH  26125.89849686  .00019665  00000+0  39861-3 0  9990,2 44768  53.1581 311.4836 0000798 102.6918 257.4179 15.46420498357105
STARLINK-1067,44771,53.0445,0.000476,15.69968296,355.7808361178968,362.19457883941686,1 44771U 19074BL  26126.00002315  .00131262  00000+0  10593-2 0  9996,2 44771  53.0445 283.6657 0004760 248.7886 227.7904 15.69968296  5718
STARLINK-1068,44772,53.0443,0.0001802,15.71188546,354.2856348224659,356.712437249852,1 44772U 19074BM  26125.87352790  .00062081  00000+0  48275-3 0  9997,2 44772  53.0443 258.1346 0001802  82.9003 277.2219 15.71188546357817
STARLINK-1114,44927,53.0439,0.0002753,15.60355692,384.76650070013056,388.49118077204,1 44927U 20001P   26125.93134533  .00074686  00000+0  89283-3 0  9999,2 44927  53.0439  52.4466 0002753  32.3561 327.7620 15.60355692349001
STARLINK-1123,44930,53.1464,0.0002385,15.53341045,405.36104794692255,408.5975484211576,1 44930U 20001S   26125.94218653  .00069755  00000+0  10836-2 0  9998,2 44930  53.1464  77.2314 0002385 128.7958 231.3267 15.53341045348669
STARLINK-1094,44941,53.1551,0.0001935,15.50054883,415.25090222040035,417.8804521564716,1 44941U 20001AD  26125.89499258  .00060198  00000+0  10540-2 0  9990,2 44941  53.1551  51.6570 0001935 137.3486 222.7674 15.50054883349025
STARLINK-1122,44949,53.1568,0.0001355,15.49892243,416.12026301869355,417.96175625930573,1 44949U 20001AM  26125.51360310  .00064637  00000+0  11371-2 0  9998,2 44949  53.1568  54.0197 0001355 145.5943 214.5154 15.49892243348959
STARLINK-1080,44961,53.0479,4.26e-05,15.56763506,396.7425527537407,397.319797082243,1 44961U 20001AZ  26124.96032510  .00084548  00000+0  11550-2 0  9990,2 44961  53.0479  17.3364 0000426 209.9792 150.1195 15.56763506349415
STARLINK-1090,44968,53.1521,0.0001615,15.46604624,425.56830313683986,427.7662549189663,1 44968U 20001BG  26125.94123665  .00038797  00000+0  77126-3 0  9995,2 44968  53.1521  38.8827 0001615 124.1394 235.9768 15.46604624349209
STARLINK-1132,45044,53.153,0.0002315,15.51200052,411.64895297075145,414.79335179530426,1 45044U 20006A   26125.76306639  .00072453  00000+0  12147-2 0  9998,2 45044  53.1530 341.9333 0002315 109.5350 250.5910 15.51200052345764
STARLINK-1131,45047,53.1599,9.84e-05,15.48259229,421.14916081341653,422.48739201181434,1 45047U 20006D   26125.38812070  .00084117  00000+0  15605-2 0  9992,2 45047  53.1599  15.7977 0000984 128.6652 231.4444 15.48259229345259
STARLINK-1134,45048,53.0293,0.0003699,15.51407377,410.1041894335285,415.1279885687718,1 45048U 20006E   26125.78546673  .00089401  00000+0  14824-2 0  9993,2 45048  53.0293 325.2769 0003699 354.8228   5.2741 15.51407377345986
STARLINK-1156,45054,53.1598,0.0001767,15.32354891,467.57864279788737,469.9983462676546,1 45054U 20006L   26125.69430138  .00040176  00000+0  12732-2 0  9990,2 45054  53.1598  16.0193 0001767 178.7111 181.3896 15.32354891345276
STARLINK-1159,45057,53.0287,0.0011031,16.24784024,199.33104067181102,213.85827565605177,1 45057U 20006P   26125.58306737  .02523862  11948-4  84917-3 0  9991,2 45057  53.0287 302.7835 0011031 286.7221  73.2608 16.24784024346276
STARLINK-1166,45060,53.0488,0.0001436,15.54439338,402.80901075432575,404.756778148012,1 45060U 20006S   26125.90238999  .00069052  00000+0  10308-2 0  9993,2 45060  53.0488 358.1895 0001436 139.6774 220.4343 15.54439338345538
STARLINK-1169,45061,53.1581,0.0003889,15.35158259,457.7909356919545,463.1099890201749,1 45061U 20006T   26125.40446962  .00069392  00000+0  19970-2 0  9991,2 45061  53.1581  16.6935 0003889 142.9543 217.1729 15.35158259345248
STARLINK-1171,45062,53.0433,0.0003114,15.70364275,355.7575279538014,359.95270384358264,1 45062U 20006U   26125.79381069  .00058273  00000+0  46943-3 0  9997,2 45062  53.0433 328.3573 0003114 154.6947 205.4222 15.70364275345945
STARLINK-1133,45064,53.1583,0.0001241,15.32457264,467.6338946501992,469.3332258732571,1 45064U 20006W   26126.00002315  .00057957  00000+0  18214-2 0  9995,2 45064  53.1583 351.3840 0001241 193.4513 210.7880 15.32457264  5868
STARLINK-1167,45071,53.1585,0.0003331,15.3461934,459.7729263993233,464.3298599068412,1 45071U 20006AD  26125.78216399  .00037430  00000+0  11056-2 0  9997,2 45071  53.1585 351.9920 0003331 152.1103 208.0079 15.34619340345620
STARLINK-1168,45072,53.1589,0.000137,15.32450231,467.5665181986742,469.4424979718906,1 45072U 20006AE  26125.77802552  .00036890  00000+0  11670-2 0  9990,2 45072  53.1589 352.6330 0001370 198.1719 161.9235 15.32450231345612
STARLINK-1172,45074,53.1572,0.0003198,15.35546074,457.1123735603387,461.48559761672095,1 45074U 20006AG  26125.82650908  .00051787  00000+0  14783-2 0  9994,2 45074  53.1572 351.3648 0003198 156.8405 203.2742 15.35546074345636
STARLINK-1153,45080,53.1595,0.0003772,15.34591831,459.55298754760133,464.7132873392884,1 45080U 20006AN  26125.76622698  .00044545  00000+0  13135-2 0  9993,2 45080  53.1595 351.9868 0003772 168.6339 191.4750 15.34591831345629
STARLINK-1151,45081,53.0509,0.0003295,15.73188651,347.57367823900586,352.00738248151356,1 45081U 20006AP  26125.76568648  .00082115  00000+0  58386-3 0  9991,2 45081  53.0509 317.9436 0003295 179.7221 180.3799 15.73188651346086
STARLINK-1185,45087,53.1619,0.0001683,15.4252461,437.5139736613155,439.80850794917023,1 45087U 20006AV  26125.95389056  .00048422  00000+0  11016-2 0  9993,2 45087  53.1619 333.1493 0001683 217.1925 142.8965 15.42524610345908
STARLINK-1183,45088,53.159,0.0001253,15.32340558,467.97326524946493,469.6891154779714,1 45088U 20006AW  26125.81915321  .00037737  00000+0  11975-2 0  9990,2 45088  53.1590 337.0154 0001253 204.5860 155.5082 15.32340558345834
STARLINK-1152,45096,53.036,0.0001183,15.45228761,429.9005000216275,431.51147227215006,1 45096U 20006BE  26125.76565450  .00064697  00000+0  13376-2 0  9999,2 45096  53.0360 295.8324 0001183  25.0869 335.0194 15.45228761346390
STARLINK-1184,45098,53.0537,0.0001892,15.12956461,525.8830638511463,528.4960394182845,1 45098U 20006BG  26125.79029711  .00018938  00000+0  10756-2 0  9995,2 45098  53.0537 346.9846 0001892 315.7071  44.3769 15.12956461345673
STARLINK-1193,45100,53.0495,0.0004454,15.64893314,370.53840481080715,376.5528036746664,1 45100U 20006BJ  26125.78287992  .00045662  00000+0  46113-3 0  9996,2 45100  53.0495 312.1711 0004454 185.4163 174.6804 15.64893314346163
STARLINK-1143,45179,53.0395,0.0001363,15.78434245,333.96137757077486,335.7913450130636,1 45179U 20012B   26126.00002315  .00115076  00000+0  64653-3 0  9995,2 45179  53.0395  46.4178 0001363  52.9783  82.1435 15.78434245  5944
STARLINK-1202,45183,53.1552,0.0003176,15.32040785,467.54944042853094,471.8992019397483,1 45183U 20012F   26125.30265941  .00052324  00000+0  16681-2 0  9991,2 45183  53.1552 136.1313 0003176  51.0872 309.0412 15.32040785343624
STARLINK-1216,45185,53.1571,0.000307,15.32380982,466.60879284654493,470.812757380465,1 45185U 20012H   26125.35336422  .00056618  00000+0  17840-2 0  9999,2 45185  53.1571 135.8210 0003070  53.2740 306.8544 15.32380982343571
